     2.100          NAVIGATION                              RINEX VERSION / TYPE
fic2rin                                 03/04/2018 00:14:09 PGM / RUN BY / DATE
                                                            END OF HEADER
32 18  3  3 22  0  0.0 -.530248042196D-03  .170530256582D-11  .000000000000D+00
     .990000000000D+02  .590937500000D+02  .443482758551D-08  .174752193489D+01
     .308826565742D-05  .175233569462D-02  .115670263767D-04  .515364964104D+04
     .597600000000D+06 -.167638063431D-07  .958890116891D+00  .596046447754D-07
     .957375341291D+00  .149156250000D+03 -.267380964965D+01 -.807426489697D-08
     .565380693232D-09  .100000000000D+01  .199000000000D+04  .000000000000D+00
     .240000000000D+01  .000000000000D+00  .465661287308D-09  .990000000000D+02
     .594786000000D+06  .400000000000D+01
32 18  3  3 21 59 44.0 -.530248973519D-03  .170530256582D-11  .000000000000D+00
     .200000000000D+01  .590937500000D+02  .443482758551D-08  .174518491741D+01
     .308826565742D-05  .175233453047D-02  .115670263767D-04  .515364963150D+04
     .597584000000D+06 -.167638063431D-07  .958890264646D+00  .596046447754D-07
     .957375332514D+00  .149156250000D+03 -.267380631419D+01 -.807426489697D-08
     .565380693232D-09  .100000000000D+01  .199000000000D+04  .000000000000D+00
     .240000000000D+01  .000000000000D+00  .465661287308D-09  .200000000000D+01
     .596406000000D+06  .400000000000D+01
 7 18  3  3 23 59 44.0  .228395219892D-03 -.568434188608D-11  .000000000000D+00
     .400000000000D+01  .103750000000D+02  .511878464650D-08 -.868304925963D+00
     .704079866409D-06  .112172847148D-01  .310875475407D-05  .515367812347D+04
     .604784000000D+06  .212341547012D-06  .203271823138D+01  .147148966789D-06
     .958990780284D+00  .315031250000D+03 -.254300596316D+01 -.860071539718D-08
     .117504894551D-09  .100000000000D+01  .199000000000D+04  .000000000000D+00
     .240000000000D+01  .000000000000D+00 -.111758708954D-07  .400000000000D+01
     .598836000000D+06  .400000000000D+01
32 18  3  3 23 59 44.0 -.530236866325D-03  .170530256582D-11  .000000000000D+00
     .480000000000D+02  .708437500000D+02  .437053919336D-08  .279618329850D+01
     .384636223316D-05  .175305060111D-02  .119470059872D-04  .515364674568D+04
     .604784000000D+06  .130385160446D-07  .958832202890D+00 -.260770320892D-07
     .957379877800D+00  .145312500000D+03 -.267460841901D+01 -.798961851397D-08
     .595381942905D-09  .100000000000D+01  .199000000000D+04  .000000000000D+00
     .240000000000D+01  .000000000000D+00  .465661287308D-09  .480000000000D+02
     .598836000000D+06  .400000000000D+01
 1 18  3  4  0  0  0.0 -.320370309055D-04 -.216004991671D-11  .000000000000D+00
     .940000000000D+02  .412500000000D+01  .487520307178D-08 -.176009985145D+00
     .201165676117D-06  .740588607732D-02  .276975333691D-05  .515366652679D+04
     .000000000000D+00  .000000000000D+00 -.124291829231D+01  .949949026108D-07
     .970031635151D+00  .327156250000D+03  .611653809722D+00 -.861535886428D-08
    -.692886004340D-10  .100000000000D+01  .199100000000D+04  .000000000000D+00
     .340000000000D+01  .000000000000D+00  .558793544769D-08  .940000000000D+02
     .598836000000D+06  .400000000000D+01
 2 18  3  4  0  0  0.0  .184386037290D-03 -.108002495836D-10  .000000000000D+00
     .900000000000D+02  .168125000000D+02  .533165065608D-08  .195717140382D+00
     .962987542152D-06  .178439554293D-01  .297091901302D-05  .515368411255D+04
     .000000000000D+00 -.253319740295D-06 -.130227982872D+01  .145286321640D-06
     .949050342636D+00  .319625000000D+03 -.188551497136D+01 -.900930384510D-08
    -.671456540289D-10  .100000000000D+01  .199100000000D+04  .000000000000D+00
     .240000000000D+01  .000000000000D+00 -.204890966415D-07  .900000000000D+02
     .598836000000D+06  .400000000000D+01
 3 18  3  4  0  0  0.0  .210520811379D-04  .807176547823D-11  .000000000000D+00
     .790000000000D+02 -.940312500000D+02  .438089676765D-08 -.103796547945D+01
    -.492483377457D-05  .121562217828D-02  .102445483208D-04  .515355231476D+04
     .000000000000D+00  .126659870148D-06 -.200045201074D+00 -.409781932831D-07
     .961194303567D+00  .184343750000D+03  .444052407057D+00 -.807247910830D-08
    -.528950604344D-09  .100000000000D+01  .199100000000D+04  .000000000000D+00
     .240000000000D+01  .000000000000D+00  .232830643654D-08  .790000000000D+02
     .598836000000D+06  .400000000000D+01
 4 18  3  4  0  0  0.0  .422536395490D-04  .284217094304D-11  .000000000000D+00
     .660000000000D+02 -.671562500000D+02  .531772150445D-08 -.305534573013D+01
    -.360421836376D-05  .965620693751D-02  .115167349577D-04  .515368459320D+04
     .000000000000D+00  .651925802231D-07  .296870553334D+01 -.195577740669D-06
     .980112553896D+00  .166500000000D+03  .898657257688D+00 -.769853496060D-08
    -.508592613495D-09  .100000000000D+01  .199100000000D+04  .000000000000D+00
     .340000000000D+01  .630000000000D+02 -.195577740669D-07  .660000000000D+02
     .598836000000D+06  .400000000000D+01
 5 18  3  4  0  0  0.0 -.129430554807D-04  .909494701773D-12  .000000000000D+00
     .610000000000D+02 -.856562500000D+02  .464447917549D-08  .280222363312D+01
    -.447593629360D-05  .528826902155D-02  .972859561443D-05  .515365947723D+04
     .000000000000D+00 -.223517417908D-07 -.220693262795D+00 -.353902578354D-07
     .948088201896D+00  .186500000000D+03  .618368120943D+00 -.812248119109D-08
    -.405016870578D-09  .100000000000D+01  .199100000000D+04  .000000000000D+00
     .240000000000D+01  .000000000000D+00 -.107102096081D-07  .610000000000D+02
     .598836000000D+06  .400000000000D+01
 6 18  3  4  0  0  0.0  .413526315242D-03 -.795807864051D-12  .000000000000D+00
     .460000000000D+02  .400000000000D+01  .472341103474D-08  .539432287120D-01
     .234693288803D-06  .115726049989D-02  .299327075481D-05  .515357673073D+04
     .000000000000D+00 -.745058059692D-08 -.125125734522D+01  .186264514923D-07
     .969759247119D+00  .328187500000D+03 -.120418353508D+01 -.845356641069D-08
    -.478591363823D-10  .100000000000D+01  .199100000000D+04  .000000000000D+00
     .240000000000D+01  .000000000000D+00  .465661287308D-08  .460000000000D+02
     .598836000000D+06  .400000000000D+01
 8 18  3  4  0  0  0.0 -.931490212679D-04 -.125055521494D-11  .000000000000D+00
     .690000000000D+02  .734062500000D+02  .427053502778D-08  .235921529022D+01
     .408291816711D-05  .339199730661D-02  .115893781185D-04  .515377834892D+04
     .000000000000D+00  .102445483208D-06 -.230774936113D+01  .111758708954D-06
     .968759585457D+00  .158812500000D+03 -.526709472912D+00 -.795747431789D-08
     .341085636157D-09  .100000000000D+01  .199100000000D+04  .000000000000D+00
     .240000000000D+01  .000000000000D+00  .558793544769D-08  .690000000000D+02
     .598836000000D+06  .400000000000D+01
 9 18  3  4  0  0  0.0  .504632014781D-03  .227373675443D-11  .000000000000D+00
     .850000000000D+02  .518750000000D+02  .449697303126D-08  .222266072939D+01
     .277161598206D-05  .114296656102D-02  .109933316708D-04  .515367410469D+04
     .000000000000D+00  .316649675369D-07  .833857533970D+00  .279396772385D-07
     .952977462834D+00  .163156250000D+03  .177003778605D+01 -.801069082028D-08
     .495020619596D-09  .100000000000D+01  .199100000000D+04  .000000000000D+00
     .240000000000D+01  .000000000000D+00  .139698386192D-08  .850000000000D+02
     .598836000000D+06  .400000000000D+01
10 18  3  4  0  0  0.0  .166429206729D-03  .409272615798D-11  .000000000000D+00
     .810000000000D+02 -.890625000000D+02  .425160566787D-08 -.224809222894D+01
    -.469014048576D-05  .332414754666D-02  .109132379293D-04  .515367355347D+04
     .000000000000D+00 -.149011611938D-07 -.203548821117D+00  .130385160446D-07
     .961303579158D+00  .169843750000D+03 -.280334608481D+01 -.794247369305D-08
    -.425017703693D-09  .100000000000D+01  .199100000000D+04  .000000000000D+00
     .240000000000D+01  .000000000000D+00  .186264514923D-08  .810000000000D+02
     .598836000000D+06  .400000000000D+01
11 18  3  4  0  0  0.0 -.737032387406D-03 -.454747350886D-12  .000000000000D+00
     .810000000000D+02  .690312500000D+02  .638062292141D-08 -.900555679164D+00
     .380910933018D-05  .167251828825D-01  .440701842308D-05  .515361088371D+04
     .000000000000D+00 -.290572643280D-06 -.166447582499D+01 -.745058059692D-08
     .903974855187D+00  .265687500000D+03  .174179437362D+01 -.946075122112D-08
     .364300888880D-09  .100000000000D+01  .199100000000D+04  .000000000000D+00
     .340000000000D+01  .000000000000D+00 -.121071934700D-07  .810000000000D+02
     .598836000000D+06  .400000000000D+01
12 18  3  4  0  0  0.0  .347289256752D-03 -.204636307899D-11  .000000000000D+00
     .530000000000D+02 -.479062500000D+02  .399445209925D-08 -.145342375556D+01
    -.247173011303D-05  .703352969140D-02  .110901892185D-04  .515363436699D+04
     .000000000000D+00  .143423676491D-06  .300284999596D+01  .707805156708D-07
     .987612721303D+00  .180125000000D+03  .930268857592D+00 -.766603360678D-08
    -.378587198248D-09  .100000000000D+01  .199100000000D+04  .000000000000D+00
     .240000000000D+01  .000000000000D+00 -.125728547573D-07  .530000000000D+02
     .598836000000D+06  .400000000000D+01
13 18  3  4  0  0  0.0 -.955862924457D-04  .113686837722D-12  .000000000000D+00
     .690000000000D+02  .723437500000D+02  .430232206613D-08  .562768749006D+00
     .368244946003D-05  .365278893150D-02  .973604619503D-05  .515366239166D+04
     .000000000000D+00 -.447034835815D-07  .964300965177D+00 -.391155481339D-07
     .968664301213D+00  .194781250000D+03  .161726672419D+01 -.804997817105D-08
     .517164399116D-09  .100000000000D+01  .199100000000D+04  .000000000000D+00
     .240000000000D+01  .000000000000D+00 -.111758708954D-07  .690000000000D+02
     .598836000000D+06  .400000000000D+01
